0 TIROS 2 DEB *
1  5922U 60016E   19244.28682957 -.00000130  00000-0 -13067-5 0  9996
2  5922  47.0303 196.4472 0041387 270.0161 249.0710 13.69731966411639
0 SL-3 R/B
1  5918U 72022B   19245.72478025 +.00000027 +00000-0 +86803-5 0  9991
2  5918 081.2344 264.6743 0057785 217.3499 142.3647 14.05857643431194
0 METEOR 1-11
1  5917U 72022A   19244.82700013 -.00000008  00000-0 -12301-4 0  9997
2  5917  81.2261 180.4954 0033054 128.6468 231.7669 14.08687807435460
0 SL-8 R/B
1  5907U 72019B   19245.18852851  .00000037  00000-0  57173-4 0  9996
2  5907  82.9689 110.3890 0021740  55.1732  62.8064 13.22241407288802
0 COSMOS 480
1  5905U 72019A   19245.91762200 +.00000027 +00000-0 +33879-4 0  9999
2  5905 082.9776 156.1829 0017861 205.6248 230.5730 13.19859869285040
0 THOR BURNER 2 R/B
1  5904U 72018B   19245.84632306 -.00000006  00000-0  17468-4 0  9996
2  5904  98.9094 333.0043 0047396 350.2244   9.8007 14.23442679460314
0 OPS 5058 (DMSP 5B F2)
1  5903U 72018A   19244.81691478  .00000009  00000-0  23745-4 0  9993
2  5903  98.9283 336.3202 0051823  28.8385 331.5640 14.24092737537321
0 THOR ABLESTAR DEB
1  5876U 61015KF  19244.20663446 -.00000023  00000-0  93116-4 0  9990
2  5876  65.6717 236.9619 0714802 110.2804 257.6459 12.47657881855717
0 COSMOS 252 DEB *
1  5871U 68097DK  19244.37703318 -.00000132  00000-0 -11921-4 0  9999
2  5871  62.8284  28.9949 0886294 295.1650  56.0000 13.03602559389925
0 SL-8 DEB
1  5858U 71114D   19245.15385405  .00000399  00000-0  62209-4 0  9996
2  5858  74.0078  59.2594 0006326  56.4521 303.7257 14.76498977536977
0 SL-8 R/B
1  5847U 72009B   19245.92803304 +.00000003 +00000-0 +25496-4 0  9995
2  5847 074.0504 149.5280 0031242 263.3365 170.3684 13.79232091391295
0 COSMOS 475
1  5846U 72009A   19244.50437838  .00000003  00000-0  26094-4 0  9997
2  5846  74.0483 291.5413 0022312  31.5015  68.6510 13.76177517386065
0 THORAD AGENA D DEB
1  5842U 70025ML  19244.98721295  .00001055  00000-0  24333-3 0  9995
2  5842 100.0115 260.7113 0035143 331.2687  28.6569 14.57745280537111
0 THOR ABLESTAR DEB
1  5826U 61015KE  19244.61270027  .00000221  00000-0  22131-3 0  9996
2  5826  66.6823 323.7696 0077437 149.8508 210.7062 13.93841200924995
0 THORAD AGENA D DEB *
1  5824U 70025MJ  19245.85830990 +.00000237 +00000-0 +20753-3 0  9998
2  5824 097.8855 123.1815 0615434 101.2331 265.8574 13.26639865347840
0 THOR ABLESTAR DEB
1  5808U 61015KC  19244.73662989  .00000618  00000-0  76814-4 0  9999
2  5808  66.5893  95.8149 0055422 165.4975 194.7760 14.89567122 33804
0 THORAD AGENA D DEB
1  5794U 69082JW  19245.20119724  .00000186  00000-0  64532-4 0  9996
2  5794  70.0030 294.0909 0031122 133.6561 226.7161 14.49350518 50723
0 THOR ABLESTAR DEB
1  5786U 61015KA  19245.03245809  .00000132  00000-0  13601-3 0  9991
2  5786  67.1204 261.5677 0135248 262.5355  96.0346 13.97779685927663
0 THOR ABLESTAR DEB
1  5785U 61015JZ  19245.19184317 +.00000129 +00000-0 +18456-3 0  9992
2  5785 065.6414 172.2652 0134776 029.1722 331.6785 13.81886088943290
0 SL-8 DEB
1  5778U 71114C   19245.87707804  .00000343  00000-0  60709-4 0  9999
2  5778  74.0126 187.2836 0008683 176.7896 183.3333 14.71332642533135
0 COSMOS 397 DEB *
1  5763U 71015CF  19245.78024127 -.00000491 +00000-0 -59074-3 0  9991
2  5763 066.9034 014.0461 0376335 078.7048 285.6036 13.32616741321727
0 THORAD AGENA D DEB
1  5758U 69082JS  19244.23271206 -.00000031 +00000-0 +20319-4 0  9997
2  5758 069.8079 318.0110 0044701 172.2395 222.9564 13.80627652521003
0 THORAD AGENA D DEB
1  5755U 69082JP  19244.18130273  .00000512  00000-0  19747-3 0  9991
2  5755  69.9271 256.8492 0009282 240.1090 119.9114 14.35704815577734
0 THOR ABLESTAR DEB
1  5748U 61015JX  19245.25697288 +.00000678 +00000-0 +87239-3 0  9998
2  5748 067.5618 306.1469 0138766 259.7180 160.0603 13.64266103816015
0 THOR ABLESTAR DEB
1  5746U 61015JV  19245.58550046  .00000233  00000-0  18403-3 0  9996
2  5746  66.2999  92.6048 0043874 147.7116 212.6667 14.08174410932742
0 THOR ABLESTAR DEB
1  5745U 61015JU  19245.36450239  .00000901  00000-0  45408-3 0  9991
2  5745  67.0714  28.4128 0101263 227.7988 131.4479 14.18083400912481
0 THORAD AGENA D DEB
1  5736U 70025MH  19245.84697642 +.00000327 +00000-0 +92105-3 0  9994
2  5736 101.3907 021.0938 0229529 258.4374 259.0704 13.12566540367577
0 SL-3 R/B
1  5732U 71120B   19244.88574478 +.00000143 +00000-0 +79235-4 0  9997
2  5732 081.2494 063.8700 0050984 295.5429 064.0473 14.05976016444143
0 METEOR 1-10
1  5731U 71120A   19245.17855372  .00000022  00000-0  54551-5 0  9995
2  5731  81.2568 276.4719 0022201 256.6283 103.2413 14.11483327446229
0 SL-8 R/B
1  5730U 71119B   19245.21188270  .00000415  00000-0  30263-4 0  9992
2  5730  73.8944 149.0582 0693496 231.4717 122.2290 14.03528832318852
0 AUREOLE 1
1  5729U 71119A   19245.84221661  .00000421  00000-0  35601-4 0  9999
2  5729  73.9586  15.8840 0803611   8.2159 353.1241 13.76136586298670
0 COSMOS 469
1  5721U 71117A   19245.76414163 -.00000066  00000-0  24974-4 0  9998
2  5721  64.4896 324.8722 0019085 117.6129 242.6863 13.76024527396211
0 COSMOS 397 DEB *
1  5720U 71015CB  19244.35540825 -.00000037 +00000-0 +25175-4 0  9995
2  5720 066.7292 006.9469 0112063 266.4660 092.3603 14.05616120412696
0 THOR ABLESTAR DEB
1  5716U 61015JT  19245.92878598  .00000148  00000-0  58135-4 0  9998
2  5716  66.6984 186.4836 0075241  91.9134 269.0594 14.52757232   409
0 THOR ABLESTAR DEB
1  5715U 61015JS  19245.71902053 -.00000171 +00000-0 -12054-3 0  9995
2  5715 066.5688 156.9852 0167718 162.7844 222.5114 13.60256954864182
0 SL-8 R/B
1  5707U 71114B   19244.53329902  .00000069  00000-0  30993-4 0  9999
2  5707  74.0275  38.5671 0025741 267.5188  92.3020 14.38862917498761
0 COSMOS 468
1  5705U 71114A   19245.23470326  .00000010  00000-0  12699-4 0  9991
2  5705  74.0181 119.5368 0014551  38.3318 321.8865 14.35691300495547
0 WESTFORD NEEDLES
1  5702U 63014CU  19244.40051308  .00000082  00000-0  11970-1 0  9998
2  5702  86.8296  51.8883 1442627  24.2130 342.0176  8.70871713605901
0 THORAD AGENA D DEB
1  5698U 70025MD  19245.71255406 -.00000019  00000-0  34327-4 0  9997
2  5698  99.6074 138.1724 0009886  79.3398 344.4359 13.58991426253821
0 THORAD AGENA D DEB
1  5696U 70025MB  19244.74360278  .00000066  00000-0  15733-3 0  9991
2  5696  99.2876  67.3558 0055018 317.8247 103.1878 13.53877058430837
0 THORAD AGENA D DEB
1  5694U 70025LZ  19244.53941127  .00003663  00000-0  63869-3 0  9993
2  5694  99.8122  99.9976 0023044  27.8472 332.3956 14.68653996511183
0 THORAD AGENA D DEB
1  5692U 70025LX  19244.21139510 -.00000033 +00000-0 +13276-4 0  9998
2  5692 099.6446 327.3719 0116325 107.4697 280.8638 13.52891991228775
0 THORAD AGENA D DEB
1  5691U 70025LW  19245.71545719  .00000417  00000-0  31889-3 0  9999
2  5691  99.0719 318.0135 0030533 297.4412  62.3647 13.98839705482423
0 THORAD AGENA D DEB
1  5690U 70025LV  19245.08142456 -.00000003  00000-0  65256-4 0  9997
2  5690  99.9435 186.1777 0049768  41.7929  22.6437 13.50888396431793
0 SL-8 R/B
1  5685U 71111B   19244.78326788 +.00000018 +00000-0 +41199-4 0  9991
2  5685 074.0305 357.1698 0023917 255.0631 216.7383 13.76822219396344
0 COSMOS 465
1  5683U 71111A   19244.92458979 -.00000005 +00000-0 +17997-4 0  9999
2  5683 074.0266 102.9500 0026920 037.7422 060.2510 13.74180103392624
0 OPS 7898 (P/L 4)
1  5682U 71110E   19244.92395427 -.00000031 +00000-0 +20701-4 0  9991
2  5682 069.9877 082.4762 0007013 026.2064 333.9384 13.74409574004358
0 OPS 7898 (P/L 3)
1  5681U 71110D   19244.90692330 -.00000021  00000-0  30921-4 0  9995
2  5681  69.9888  82.1816 0006593  28.1554 331.9895 13.74403493 15994
0 OPS 7898 (P/L 2)
1  5680U 71110C   19244.03251097 -.00000065  00000-0 -15918-4 0  9997
2  5680  69.9881  81.8049 0006184  26.5974 333.5436 13.74503478  8461
0 THORAD AGENA D R/B
1  5679U 71110B   19245.25729171 -.00000070  00000-0 -16213-4 0  9998
2  5679  69.9949 168.7948 0010844  42.5051 317.6888 13.85327399 25864
0 OPS 7898 (P/L 1)
1  5678U 71110A   19244.90415766 -.00000052  00000-0 -17521-5 0  9994
2  5678  69.9897  96.7222 0006108  38.4154 321.7374 13.73966103 16063
0 THORAD AGENA D DEB
1  5635U 69082JF  19244.03087764  .00000369  00000-0  15831-3 0  9998
2  5635  69.9488 118.7428 0005536 307.7339  52.3283 14.32318506512337
0 SL-8 R/B
1  5615U 71099B   19244.95653536 +.00000049 +00000-0 +17521-3 0  9997
2  5615 074.0330 049.5901 0022145 052.2697 062.6665 13.17606780298053
0 COSMOS 457
1  5614U 71099A   19244.90144257 +.00000242 +00000-0 +68803-3 0  9990
2  5614 074.0349 125.6055 0022961 161.8192 284.1737 13.16046496295252
0 OV1-5 DEB
1  5599U 66025H   19245.80130458  .00000666  00000-0  10604-3 0  9999
2  5599 144.6233 339.4806 0050831 294.9448  64.5975 14.41202038745022
0 COSMOS 397 DEB *
1  5597U 71015CA  19244.70019631 +.00000696 +00000-0 +18276-3 0  9995
2  5597 066.5752 353.7986 0032004 206.9148 153.0304 14.55022968509630
0 COSMOS 252 DEB *
1  5595U 68097CW  19244.17909855  .00001844  00000-0  13711-3 0  9991
2  5595  62.7144 300.4580 0180496 167.5334 193.0317 14.94960550248187
0 BLACK ARROW R/B
1  5581U 71093B   19244.75330603 +.00000248 +00000-0 +52390-4 0  9993
2  5581 082.0428 321.3481 0533951 188.8699 170.2745 13.93196002400646
0 PROSPERO (BLACK ARROW)
1  5580U 71093A   19245.52483840  .00000124  00000-0  21418-4 0  9990
2  5580  82.0400 289.9663 0530352  83.6003 282.5253 13.94467059403467
0 ASTEX 1
1  5560U 71089A   19245.18412887  .00000064  00000-0  17481-4 0  9996
2  5560  92.7158 103.7887 0016095 174.6184 185.5196 14.48029913517904
0 OPS 4311 (DMSP 5B F1)
1  5557U 71087A   19244.83794686 -.00000013  00000-0  14253-4 0  9990
2  5557  99.1001 207.4919 0050671 218.0938 141.6655 14.27134182486814
0 THOR BURNER 2 R/B
1  5556U 71087B   19244.75992286 -.00000013  00000-0  14647-4 0  9993
2  5556  99.1003 112.3590 0063755  76.8806 283.9476 14.22986455481915
0 SL-8 R/B
1  5555U 71086J   19245.64073520 -.00000052 +00000-0 -32452-3 0  9998
2  5555 074.0181 294.7289 0076443 297.3059 180.8063 12.26946150144778
